CCSDS_OMM_VERS = 2.0
CREATION_DATE  = 
ORIGINATOR     = 

OBJECT_NAME    = STARLINK-35899
OBJECT_ID      = 2025-263N
CENTER_NAME    = EARTH
REF_FRAME      = TEME
TIME_SYSTEM    = UTC
MEAN_ELEMENT_THEORY = SGP/SGP4

EPOCH          = 2025-11-21T16:00:05.000256
MEAN_MOTION    = 16.01809489
ECCENTRICITY   = .0002211
INCLINATION    = 43.0009
RA_OF_ASC_NODE = 252.5619
ARG_OF_PERICENTER = 260.4521
MEAN_ANOMALY   = 90.5115

EPHEMERIS_TYPE = 0
CLASSIFICATION_TYPE = U
NORAD_CAT_ID   = 66497
ELEMENT_SET_NO = 999
REV_AT_EPOCH   = 224
BSTAR          = -.1877E-2
MEAN_MOTION_DOT = -.111083E-1
MEAN_MOTION_DDOT = .40516E-3

CCSDS_OMM_VERS = 2.0
CREATION_DATE  = 
ORIGINATOR     = 

OBJECT_NAME    = STARLINK-35907
OBJECT_ID      = 2025-263P
CENTER_NAME    = EARTH
REF_FRAME      = TEME
TIME_SYSTEM    = UTC
MEAN_ELEMENT_THEORY = SGP/SGP4

EPOCH          = 2025-11-21T16:00:05.000256
MEAN_MOTION    = 16.01908986
ECCENTRICITY   = .0002186
INCLINATION    = 43.0008
RA_OF_ASC_NODE = 252.5581
ARG_OF_PERICENTER = 257.8153
MEAN_ANOMALY   = 94.7118

EPHEMERIS_TYPE = 0
CLASSIFICATION_TYPE = U
NORAD_CAT_ID   = 66498
ELEMENT_SET_NO = 999
REV_AT_EPOCH   = 224
BSTAR          = -.18709E-2
MEAN_MOTION_DOT = -.1113711E-1
MEAN_MOTION_DDOT = .40753E-3

CCSDS_OMM_VERS = 2.0
CREATION_DATE  = 
ORIGINATOR     = 

OBJECT_NAME    = STARLINK-35816
OBJECT_ID      = 2025-263Q
CENTER_NAME    = EARTH
REF_FRAME      = TEME
TIME_SYSTEM    = UTC
MEAN_ELEMENT_THEORY = SGP/SGP4

EPOCH          = 2025-11-21T16:00:05.000256
MEAN_MOTION    = 16.02090325
ECCENTRICITY   = .0002121
INCLINATION    = 43.0009
RA_OF_ASC_NODE = 252.5509
ARG_OF_PERICENTER = 258.7988
MEAN_ANOMALY   = 96.5510

EPHEMERIS_TYPE = 0
CLASSIFICATION_TYPE = U
NORAD_CAT_ID   = 66499
ELEMENT_SET_NO = 999
REV_AT_EPOCH   = 224
BSTAR          = -.18708E-2
MEAN_MOTION_DOT = -.1125418E-1
MEAN_MOTION_DDOT = .41621E-3

CCSDS_OMM_VERS = 2.0
CREATION_DATE  = 
ORIGINATOR     = 

OBJECT_NAME    = STARLINK-35894
OBJECT_ID      = 2025-263R
CENTER_NAME    = EARTH
REF_FRAME      = TEME
TIME_SYSTEM    = UTC
MEAN_ELEMENT_THEORY = SGP/SGP4

EPOCH          = 2025-11-21T16:00:05.000256
MEAN_MOTION    = 16.01940576
ECCENTRICITY   = .000232
INCLINATION    = 43.0008
RA_OF_ASC_NODE = 252.5545
ARG_OF_PERICENTER = 253.7076
MEAN_ANOMALY   = 100.1396

EPHEMERIS_TYPE = 0
CLASSIFICATION_TYPE = U
NORAD_CAT_ID   = 66500
ELEMENT_SET_NO = 999
REV_AT_EPOCH   = 224
BSTAR          = -.16612E-2
MEAN_MOTION_DOT = -.991968E-2
MEAN_MOTION_DDOT = .3301E-3

CCSDS_OMM_VERS = 2.0
CREATION_DATE  = 
ORIGINATOR     = 

OBJECT_NAME    = STARLINK-35897
OBJECT_ID      = 2025-263S
CENTER_NAME    = EARTH
REF_FRAME      = TEME
TIME_SYSTEM    = UTC
MEAN_ELEMENT_THEORY = SGP/SGP4

EPOCH          = 2025-11-21T16:00:05.000256
MEAN_MOTION    = 16.02186808
ECCENTRICITY   = .0002071
INCLINATION    = 43.0009
RA_OF_ASC_NODE = 252.5469
ARG_OF_PERICENTER = 260.3160
MEAN_ANOMALY   = 96.6320

EPHEMERIS_TYPE = 0
CLASSIFICATION_TYPE = U
NORAD_CAT_ID   = 66501
ELEMENT_SET_NO = 999
REV_AT_EPOCH   = 224
BSTAR          = -.18595E-2
MEAN_MOTION_DOT = -.1125033E-1
MEAN_MOTION_DDOT = .4164E-3

CCSDS_OMM_VERS = 2.0
CREATION_DATE  = 
ORIGINATOR     = 

OBJECT_NAME    = STARLINK-35922
OBJECT_ID      = 2025-263T
CENTER_NAME    = EARTH
REF_FRAME      = TEME
TIME_SYSTEM    = UTC
MEAN_ELEMENT_THEORY = SGP/SGP4

EPOCH          = 2025-11-21T16:00:05.000256
MEAN_MOTION    = 16.02502412
ECCENTRICITY   = .0002147
INCLINATION    = 43.0010
RA_OF_ASC_NODE = 252.5345
ARG_OF_PERICENTER = 261.8928
MEAN_ANOMALY   = 99.9158

EPHEMERIS_TYPE = 0
CLASSIFICATION_TYPE = U
NORAD_CAT_ID   = 66502
ELEMENT_SET_NO = 999
REV_AT_EPOCH   = 224
BSTAR          = -.18307E-2
MEAN_MOTION_DOT = -.1128464E-1
MEAN_MOTION_DDOT = .42019E-3

CCSDS_OMM_VERS = 2.0
CREATION_DATE  = 
ORIGINATOR     = 

OBJECT_NAME    = STARLINK-35917
OBJECT_ID      = 2025-263U
CENTER_NAME    = EARTH
REF_FRAME      = TEME
TIME_SYSTEM    = UTC
MEAN_ELEMENT_THEORY = SGP/SGP4

EPOCH          = 2025-11-21T16:00:05.000256
MEAN_MOTION    = 16.02730836
ECCENTRICITY   = .00021406
INCLINATION    = 43.0010
RA_OF_ASC_NODE = 252.5258
ARG_OF_PERICENTER = 259.6800
MEAN_ANOMALY   = 105.5042

EPHEMERIS_TYPE = 0
CLASSIFICATION_TYPE = U
NORAD_CAT_ID   = 66503
ELEMENT_SET_NO = 999
REV_AT_EPOCH   = 224
BSTAR          = -.18127502E-2
MEAN_MOTION_DOT = -.1132639E-1
MEAN_MOTION_DDOT = .42410856E-3

CCSDS_OMM_VERS = 2.0
CREATION_DATE  = 
ORIGINATOR     = 

OBJECT_NAME    = STARLINK-35916
OBJECT_ID      = 2025-263V
CENTER_NAME    = EARTH
REF_FRAME      = TEME
TIME_SYSTEM    = UTC
MEAN_ELEMENT_THEORY = SGP/SGP4

EPOCH          = 2025-11-21T16:00:05.000256
MEAN_MOTION    = 16.02824650
ECCENTRICITY   = .0002053
INCLINATION    = 43.0010
RA_OF_ASC_NODE = 252.5219
ARG_OF_PERICENTER = 251.2926
MEAN_ANOMALY   = 115.4430

EPHEMERIS_TYPE = 0
CLASSIFICATION_TYPE = U
NORAD_CAT_ID   = 66504
ELEMENT_SET_NO = 999
REV_AT_EPOCH   = 224
BSTAR          = -.17854E-2
MEAN_MOTION_DOT = -.1121903E-1
MEAN_MOTION_DDOT = .41724E-3

CCSDS_OMM_VERS = 2.0
CREATION_DATE  = 
ORIGINATOR     = 

OBJECT_NAME    = STARLINK-34766
OBJECT_ID      = 2025-263W
CENTER_NAME    = EARTH
REF_FRAME      = TEME
TIME_SYSTEM    = UTC
MEAN_ELEMENT_THEORY = SGP/SGP4

EPOCH          = 2025-11-21T16:00:05.000256
MEAN_MOTION    = 16.02318275
ECCENTRICITY   = .0002
INCLINATION    = 43.0012
RA_OF_ASC_NODE = 252.5421
ARG_OF_PERICENTER = 261.2636
MEAN_ANOMALY   = 97.5871

EPHEMERIS_TYPE = 0
CLASSIFICATION_TYPE = U
NORAD_CAT_ID   = 66505
ELEMENT_SET_NO = 999
REV_AT_EPOCH   = 224
BSTAR          = -.18536E-2
MEAN_MOTION_DOT = -.1130117E-1
MEAN_MOTION_DDOT = .42045E-3

CCSDS_OMM_VERS = 2.0
CREATION_DATE  = 
ORIGINATOR     = 

OBJECT_NAME    = STARLINK-34765
OBJECT_ID      = 2025-263X
CENTER_NAME    = EARTH
REF_FRAME      = TEME
TIME_SYSTEM    = UTC
MEAN_ELEMENT_THEORY = SGP/SGP4

EPOCH          = 2025-11-21T16:00:05.000256
MEAN_MOTION    = 16.02389806
ECCENTRICITY   = .0002052
INCLINATION    = 43.0013
RA_OF_ASC_NODE = 252.5389
ARG_OF_PERICENTER = 257.9856
MEAN_ANOMALY   = 102.1747

EPHEMERIS_TYPE = 0
CLASSIFICATION_TYPE = U
NORAD_CAT_ID   = 66506
ELEMENT_SET_NO = 999
REV_AT_EPOCH   = 224
BSTAR          = -.1835E-2
MEAN_MOTION_DOT = -.1123633E-1
MEAN_MOTION_DDOT = .41639E-3

CCSDS_OMM_VERS = 2.0
CREATION_DATE  = 
ORIGINATOR     = 

OBJECT_NAME    = STARLINK-34767
OBJECT_ID      = 2025-263Y
CENTER_NAME    = EARTH
REF_FRAME      = TEME
TIME_SYSTEM    = UTC
MEAN_ELEMENT_THEORY = SGP/SGP4

EPOCH          = 2025-11-21T16:00:05.000256
MEAN_MOTION    = 16.02630136
ECCENTRICITY   = .0002078
INCLINATION    = 43.0015
RA_OF_ASC_NODE = 252.5300
ARG_OF_PERICENTER = 257.1338
MEAN_ANOMALY   = 106.5546

EPHEMERIS_TYPE = 0
CLASSIFICATION_TYPE = U
NORAD_CAT_ID   = 66507
ELEMENT_SET_NO = 999
REV_AT_EPOCH   = 224
BSTAR          = -.18174E-2
MEAN_MOTION_DOT = -.112877E-1
MEAN_MOTION_DDOT = .421E-3

CCSDS_OMM_VERS = 2.0
CREATION_DATE  = 
ORIGINATOR     = 

OBJECT_NAME    = STARLINK-35608
OBJECT_ID      = 2025-263Z
CENTER_NAME    = EARTH
REF_FRAME      = TEME
TIME_SYSTEM    = UTC
MEAN_ELEMENT_THEORY = SGP/SGP4

EPOCH          = 2025-11-21T16:00:05.000256
MEAN_MOTION    = 16.02921099
ECCENTRICITY   = .0002112
INCLINATION    = 43.0009
RA_OF_ASC_NODE = 252.5184
ARG_OF_PERICENTER = 257.5605
MEAN_ANOMALY   = 110.5622

EPHEMERIS_TYPE = 0
CLASSIFICATION_TYPE = U
NORAD_CAT_ID   = 66508
ELEMENT_SET_NO = 999
REV_AT_EPOCH   = 224
BSTAR          = -.17922E-2
MEAN_MOTION_DOT = -.1132564E-1
MEAN_MOTION_DDOT = .42496E-3

